     2.10           N: GPS NAV DATA                         RINEX VERSION / TYPE
teqc  2009Mar23                         20140512 00:19:21UTCPGM / RUN BY / DATE
    16                                                      LEAP SECONDS
Linux 2.4.20-8|Pentium IV|gcc -static|Linux|486/DX+         COMMENT
teqc  2009Mar23                         20140511 02:05:03UTCCOMMENT
                                                            END OF HEADER
 1 14  5 11  2  0  0.0 1.179240643978D-05 1.250555214938D-12 0.000000000000D+00
    5.500000000000D+01-4.709375000000D+01 4.811628995090D-09 1.552488723341D+00
   -2.285465598106D-06 3.010090324096D-03 8.014962077141D-06 5.153679428101D+03
    7.200000000000D+03 6.891787052155D-08-1.442960877684D+00 1.378357410431D-07
    9.604738485968D-01 2.240312500000D+02 3.054422737081D-01-8.214627886510D-09
   -5.039495629507D-10 1.000000000000D+00 1.792000000000D+03 0.000000000000D+00
    2.000000000000D+00 0.000000000000D+00 5.587935447693D-09 5.500000000000D+01
    3.570000000000D+03 4.000000000000D+00
 4 14  5 11  2  0  0.0 6.855465471745D-06 0.000000000000D+00 0.000000000000D+00
    7.900000000000D+01-5.375000000000D+01 5.353794435599D-09-7.551231571333D-01
   -2.704560756683D-06 1.056269160472D-02 7.739290595055D-06 5.153726816177D+03
    7.200000000000D+03-4.470348358154D-08-1.456163885974D+00 1.750886440277D-07
    9.380296175216D-01 2.168125000000D+02 1.093826953643D+00-8.605715605455D-09
   -5.539516457381D-10 1.000000000000D+00 1.792000000000D+03 0.000000000000D+00
    2.000000000000D+00 0.000000000000D+00-6.519258022308D-09 7.900000000000D+01
    2.670000000000D+03 4.000000000000D+00
 8 14  5 11  1 59 44.0 1.350371167064D-05 3.410605131648D-13 0.000000000000D+00
    3.100000000000D+01-7.328125000000D+01 3.708011596424D-09 3.910414024097D-01
   -3.751367330551D-06 1.368226448540D-02 7.614493370056D-06 5.153477758408D+03
    7.184000000000D+03 1.601874828339D-07 1.816692480397D+00 2.495944499969D-07
    9.965720646438D-01 2.525625000000D+02-2.779218440255D+00-7.912472443380D-09
   -2.853690296227D-10 1.000000000000D+00 1.792000000000D+03 0.000000000000D+00
    2.000000000000D+00 0.000000000000D+00-4.190951585770D-09 3.100000000000D+01
    2.670000000000D+03 4.000000000000D+00
 9 14  5 11  2  0  0.0 3.266660496593D-04 2.842170943040D-12 0.000000000000D+00
    1.020000000000D+02-8.384375000000D+01 3.964808007311D-09 1.973443766380D+00
   -4.421919584274D-06 1.717700436711D-02 6.122514605522D-06 5.153682830811D+03
    7.200000000000D+03 3.408640623093D-07 1.697063908084D+00-3.911554813385D-08
    9.818421868110D-01 2.683750000000D+02 1.801442505928D+00-7.753894409397D-09
   -3.382283742837D-10 1.000000000000D+00 1.792000000000D+03 0.000000000000D+00
    4.000000000000D+00 0.000000000000D+00-6.053596735001D-09 1.020000000000D+02
    2.670000000000D+03 4.000000000000D+00
11 14  5 11  2  0  0.0-4.879063926637D-04-3.183231456205D-12 0.000000000000D+00
    3.500000000000D+01-4.425000000000D+01 6.762781697003D-09 1.087945584089D+00
   -2.369284629822D-06 1.491414313205D-02 5.740672349930D-06 5.153696451187D+03
    7.200000000000D+03-3.352761268616D-07-1.765854592280D+00 2.607703208923D-08
    8.900788567514D-01 2.364375000000D+02 1.281764238625D+00-9.393962724825D-09
   -3.428714248282D-10 1.000000000000D+00 1.792000000000D+03 0.000000000000D+00
    2.000000000000D+00 0.000000000000D+00-1.210719347000D-08 3.500000000000D+01
    2.670000000000D+03 4.000000000000D+00
15 14  5 11  2  0  0.0-1.787841320038D-04-2.160049916711D-12 0.000000000000D+00
    6.000000000000D+01 7.071875000000D+01 5.197359348021D-09 2.988335013474D+00
    3.641471266747D-06 6.260461639613D-03 3.937631845474D-06 5.153685773849D+03
    7.200000000000D+03-6.332993507385D-08 6.094197070627D-01-5.587935447693D-09
    9.371001042436D-01 2.921875000000D+02 2.739829957601D-01-8.546784579312D-09
    2.185805333280D-10 1.000000000000D+00 1.792000000000D+03 0.000000000000D+00
    2.000000000000D+00 0.000000000000D+00-1.024454832077D-08 6.000000000000D+01
    2.670000000000D+03 4.000000000000D+00
17 14  5 11  2  0  0.0-9.213760495186D-05-3.069544618484D-12 0.000000000000D+00
    5.800000000000D+01 1.671875000000D+01 4.849844872649D-09-2.615534568359D+00
    9.369105100632D-07 9.287734283134D-03 5.206093192101D-06 5.153581481934D+03
    7.200000000000D+03 1.937150955200D-07-2.452650821951D+00-7.636845111847D-08
    9.684605108733D-01 2.811875000000D+02-2.099946347903D+00-8.150696652089D-09
    3.246563803842D-10 1.000000000000D+00 1.792000000000D+03 0.000000000000D+00
    2.000000000000D+00 0.000000000000D+00-1.024454832077D-08 5.800000000000D+01
    2.670000000000D+03 4.000000000000D+00
20 14  5 11  2  0  0.0 1.882193610072D-04 3.865352482535D-12 0.000000000000D+00
    1.700000000000D+01 5.618750000000D+01 5.088783396826D-09-4.842079269180D-01
    2.874061465263D-06 5.784612963907D-03 1.124106347561D-05 5.153807661057D+03
    7.200000000000D+03-3.352761268616D-08-4.625019384336D-01 1.005828380585D-07
    9.271714357719D-01 1.437500000000D+02 1.331428404160D+00-8.395349700013D-09
   -8.178912113090D-11 1.000000000000D+00 1.792000000000D+03 0.000000000000D+00
    2.000000000000D+00 0.000000000000D+00-8.381903171539D-09 1.700000000000D+01
    2.910000000000D+03 4.000000000000D+00
24 14  5 11  2  0  0.0-2.816552296281D-05-5.684341886081D-13 0.000000000000D+00
    7.000000000000D+01-7.490625000000D+01 4.652336645638D-09 1.729642945954D+00
   -3.989785909653D-06 2.075993805192D-03 5.664303898811D-06 5.153734403610D+03
    7.200000000000D+03 1.862645149231D-09 1.683189853419D+00-3.911554813385D-08
    9.566699397487D-01 2.663125000000D+02 3.481763944187D-01-8.298917111780D-09
   -2.685826161155D-10 1.000000000000D+00 1.792000000000D+03 0.000000000000D+00
    2.000000000000D+00 0.000000000000D+00 2.793967723846D-09 7.000000000000D+01
    2.670000000000D+03 4.000000000000D+00
26 14  5 11  2  0  0.0 8.255895227194D-05-1.170974428533D-11 0.000000000000D+00
    8.000000000000D+00 5.328125000000D+01 4.222318733666D-09 2.446834171893D+00
    2.468004822731D-06 2.140618162230D-02 3.123655915260D-06 5.153690525055D+03
    7.200000000000D+03 1.974403858185D-07 7.439522371454D-01-1.676380634308D-07
    9.752451270112D-01 3.225000000000D+02 1.281985815124D+00-7.881756878239D-09
    1.392915163365D-10 1.000000000000D+00 1.792000000000D+03 0.000000000000D+00
    2.000000000000D+00 0.000000000000D+00-6.053596735001D-09 8.000000000000D+00
    2.670000000000D+03 4.000000000000D+00
28 14  5 11  2  0  0.0 3.538420423865D-04 2.955857780762D-12 0.000000000000D+00
    9.400000000000D+01 8.093750000000D+00 3.771585673111D-09-1.768794725537D+00
    6.631016731262D-07 1.912705379073D-02 1.142919063568D-05 5.153673690796D+03
    7.200000000000D+03 3.334134817123D-07 2.804695857880D+00 3.203749656677D-07
    9.868451984065D-01 1.663750000000D+02-1.715751135853D+00-7.443524338381D-09
    4.260891768959D-10 1.000000000000D+00 1.792000000000D+03 0.000000000000D+00
    2.000000000000D+00 0.000000000000D+00-1.071020960808D-08 9.400000000000D+01
    2.670000000000D+03 4.000000000000D+00
32 14  5 11  2  0  0.0-4.315464757383D-04 8.071765478235D-12 0.000000000000D+00
    8.600000000000D+01 6.884375000000D+01 4.540903432569D-09 1.489920827446D+00
    3.643333911896D-06 1.141556992661D-02 1.043081283569D-05 5.153751508713D+03
    7.200000000000D+03-3.166496753693D-08-3.157302787477D-01 2.384185791016D-07
    9.481877505457D-01 1.701562500000D+02-1.604135931386D-01-7.975332204599D-09
   -1.467918287546D-10 1.000000000000D+00 1.792000000000D+03 0.000000000000D+00
    2.000000000000D+00 0.000000000000D+00-3.259629011154D-09 8.600000000000D+01
    2.670000000000D+03 4.000000000000D+00
 7 14  5 11  2  0  0.0 3.449129872024D-04 4.206412995700D-12 0.000000000000D+00
    5.000000000000D+01-7.168750000000D+01 4.244462513186D-09 9.156299015807D-01
   -3.702938556671D-06 7.285757805221D-03 6.714835762978D-06 5.153634859085D+03
    7.200000000000D+03-1.490116119385D-08 1.717592990677D+00 1.601874828339D-07
    9.733070838611D-01 2.572812500000D+02-2.842102759479D+00-8.109623512656D-09
   -3.421571093598D-10 1.000000000000D+00 1.792000000000D+03 0.000000000000D+00
    2.000000000000D+00 0.000000000000D+00-1.071020960808D-08 5.000000000000D+01
    1.080000000000D+03 4.000000000000D+00
22 14  5 11  2  0  0.0 2.333056181669D-04 2.955857780762D-12 0.000000000000D+00
    2.400000000000D+01 4.896875000000D+01 5.049853203798D-09-1.567473570240D+00
    2.434477210045D-06 7.170808850788D-03 1.053512096405D-05 5.153732351303D+03
    7.200000000000D+03 1.993030309677D-07-4.075097799038D-01 3.725290298462D-08
    9.239912727682D-01 1.583125000000D+02-2.059115811307D+00-8.202484523547D-09
   -1.400058318049D-10 1.000000000000D+00 1.792000000000D+03 0.000000000000D+00
    2.000000000000D+00 0.000000000000D+00-1.722946763039D-08 2.400000000000D+01
    7.800000000000D+02 4.000000000000D+00
14 14  5 11  2  0  0.0 1.739859580994D-04-3.410605131648D-12 0.000000000000D+00
    9.000000000000D+01 4.650000000000D+01 4.352324148913D-09-2.685756707656D+00
    2.473592758179D-06 7.453883998096D-03 3.727152943611D-06 5.153655418396D+03
    7.200000000000D+03 5.774199962616D-08 7.208936784925D-01-5.587935447693D-08
    9.704386248125D-01 3.132187500000D+02-2.000017787397D+00-8.070336161895D-09
    1.942938074027D-10 1.000000000000D+00 1.792000000000D+03 0.000000000000D+00
    2.800000000000D+00 0.000000000000D+00-9.313225746155D-09 9.000000000000D+01
    5.490000000000D+03 4.000000000000D+00
